stk.v.4.3 

BEGIN Ephemeris 
 
NumberOfEphemerisPoints		146 
ScenarioEpoch	    1 Sep 2020 12:28: 6.558222771 
InterpolationMethod		Lagrange 
InterpolationOrder		5 
CentralBody				Earth 
CoordinateSystem			TEME 
CoordinateSystemEpoch	  1 Sep 2020 12:28: 6.558222771 
DistanceUnit			Kilometers 
 
EphemerisTimePosVel 
 
       0.00000000   -2213.41519666   -6808.15601255       0.03852611  0.449087590 -0.136344895  7.448636543
 END Ephemeris 
